IRIDIUM 26              
1 24903U 97043A   25100.85587808  .00000753  00000+0  24729-3 0  9999
2 24903  86.3954 138.9111 0002166  89.1968 270.9477 14.37075323447540
IRIDIUM 22              
1 24907U 97043E   25100.86964841  .00000613  00000+0  20475-3 0  9999
2 24907  86.3965 142.3838 0002283  93.5794 266.5664 14.35898086447105
DUMMY MASS 1            
1 24925U 97048A   25100.71742512  .00000855  00000+0  92538-4 0  9995
2 24925  86.3394 166.5138 0007984  41.9837 318.1999 14.86918499495341
DUMMY MASS 2            
1 24926U 97048B   25100.73566311  .00000897  00000+0  97866-4 0  9994
2 24926  86.3396 168.0984 0009100  49.8789 310.3232 14.86671716495123
IRIDIUM 29              
1 24944U 97051A   25100.42860299  .00000836  00000+0  27881-3 0  9998
2 24944  86.4018 172.3007 0002412  98.4147 261.7324 14.36397998443548
IRIDIUM 33              
1 24946U 97051C   25100.75492917  .00000564  00000+0  19192-3 0  9998
2 24946  86.3931 171.4191 0005846 307.8460  52.2206 14.34845411443083
IRIDIUM 28              
1 24948U 97051E   25100.72433838  .00000788  00000+0  25766-3 0  9996
2 24948  86.4019 169.7340 0001895  87.4818 272.6597 14.37326869444229
IRIDIUM 36              
1 24967U 97056C   25100.83721165  .00000928  00000+0  30333-3 0  9999
2 24967  86.4032 201.2565 0001967  99.6540 260.4880 14.37540133442548
